{
  "type": "FeatureCollection",
  "features": [
    {
      "type": "Feature",
      "properties": {
        "norad_id": 43783,
        "name": "KAZSTSAT",
        "group": "resource",
        "lat": 16.185341647986935,
        "lon": 28.11157316695315,
        "alt_km": 569.2278325195784,
        "timestamp": "2025-12-21T11:31:42.499597+00:00",
        "meta_object_name": "KAZSTSAT",
        "meta_object_id": "2018-099AB",
        "meta_epoch": "2025-12-21T01:50:44.888352",
        "meta_mean_motion": 14.99364891,
        "meta_eccentricity": 0.0006024,
        "meta_inclination": 97.4527,
        "meta_ra_of_asc_node": 29.903,
        "meta_arg_of_pericenter": 292.687,
        "meta_mean_anomaly": 67.3717,
        "meta_ephemeris_type": 0,
        "meta_classification_type": "U",
        "meta_norad_cat_id": 43783,
        "meta_element_set_no": 999,
        "meta_rev_at_epoch": 38461,
        "meta_bstar": 1.8044e-05,
        "meta_mean_motion_dot": 1.65e-06,
        "meta_mean_motion_ddot": 0,
        "tle_line1": "1 43783U 18099AB  25355.07690843  .00000165  00000+0  18044-4 0  9991",
        "tle_line2": "2 43783  97.4527  29.9030 0006024 292.6870  67.3717 14.99364891384617"
      },
      "geometry": {
        "type": "Point",
        "coordinates": [
          28.11157316695315,
          16.185341647986935
        ]
      }
    },
    {
      "type": "Feature",
      "properties": {
        "norad_id": 43831,
        "name": "SAUDISAT 5A",
        "group": "resource",
        "lat": 2.8742653298978174,
        "lon": -124.1265359583043,
        "alt_km": 496.01670228597413,
        "timestamp": "2025-12-21T11:31:42.499607+00:00",
        "meta_object_name": "SAUDISAT 5A",
        "meta_object_id": "2018-102A",
        "meta_epoch": "2025-12-21T04:27:36.283968",
        "meta_mean_motion": 15.25751374,
        "meta_eccentricity": 0.0011359,
        "meta_inclination": 97.3342,
        "meta_ra_of_asc_node": 55.2141,
        "meta_arg_of_pericenter": 50.2074,
        "meta_mean_anomaly": 310.0163,
        "meta_ephemeris_type": 0,
        "meta_classification_type": "U",
        "meta_norad_cat_id": 43831,
        "meta_element_set_no": 999,
        "meta_rev_at_epoch": 38851,
        "meta_bstar": 0.00017586,
        "meta_mean_motion_dot": 4.423e-05,
        "meta_mean_motion_ddot": 0,
        "tle_line1": "1 43831U 18102A   25355.18583662  .00004423  00000+0  17586-3 0  9992",
        "tle_line2": "2 43831  97.3342  55.2141 0011359  50.2074 310.0163 15.25751374388513"
      },
      "geometry": {
        "type": "Point",
        "coordinates": [
          -124.1265359583043,
          2.8742653298978174
        ]
      }
    },
    {
      "type": "Feature",
      "properties": {
        "norad_id": 43833,
        "name": "SAUDISAT 5B",
        "group": "resource",
        "lat": -59.36452372519319,
        "lon": -134.32064214682262,
        "alt_km": 502.8409216903192,
        "timestamp": "2025-12-21T11:31:42.499617+00:00",
        "meta_object_name": "SAUDISAT 5B",
        "meta_object_id": "2018-102C",
        "meta_epoch": "2025-12-21T04:11:06.851904",
        "meta_mean_motion": 15.26099723,
        "meta_eccentricity": 0.0012078,
        "meta_inclination": 97.3437,
        "meta_ra_of_asc_node": 57.9566,
        "meta_arg_of_pericenter": 52.2758,
        "meta_mean_anomaly": 307.9574,
        "meta_ephemeris_type": 0,
        "meta_classification_type": "U",
        "meta_norad_cat_id": 43833,
        "meta_element_set_no": 999,
        "meta_rev_at_epoch": 38862,
        "meta_bstar": 0.0001603,
        "meta_mean_motion_dot": 4.069e-05,
        "meta_mean_motion_ddot": 0,
        "tle_line1": "1 43833U 18102C   25355.17438486  .00004069  00000+0  16030-3 0  9995",
        "tle_line2": "2 43833  97.3437  57.9566 0012078  52.2758 307.9574 15.26099723388627"
      },
      "geometry": {
        "type": "Point",
        "coordinates": [
          -134.32064214682262,
          -59.36452372519319
        ]
      }
    },
    {
      "type": "Feature",
      "properties": {
        "norad_id": 44622,
        "name": "GAOFEN-10R",
        "group": "resource",
        "lat": -80.4267106705903,
        "lon": 66.20538790353493,
        "alt_km": 629.6724603867369,
        "timestamp": "2025-12-21T11:31:42.499629+00:00",
        "meta_object_name": "GAOFEN-10R",
        "meta_object_id": "2019-066A",
        "meta_epoch": "2025-12-21T03:51:34.507584",
        "meta_mean_motion": 14.82817641,
        "meta_eccentricity": 0.0007304,
        "meta_inclination": 98.029,
        "meta_ra_of_asc_node": 302.7003,
        "meta_arg_of_pericenter": 17.4507,
        "meta_mean_anomaly": 342.6956,
        "meta_ephemeris_type": 0,
        "meta_classification_type": "U",
        "meta_norad_cat_id": 44622,
        "meta_element_set_no": 999,
        "meta_rev_at_epoch": 33599,
        "meta_bstar": 0.00014088,
        "meta_mean_motion_dot": 1.086e-05,
        "meta_mean_motion_ddot": 0,
        "tle_line1": "1 44622U 19066A   25355.16081606  .00001086  00000+0  14088-3 0  9996",
        "tle_line2": "2 44622  98.0290 302.7003 0007304  17.4507 342.6956 14.82817641335997"
      },
      "geometry": {
        "type": "Point",
        "coordinates": [
          66.20538790353493,
          -80.4267106705903
        ]
      }
    },
    {
      "type": "Feature",
      "properties": {
        "norad_id": 44804,
        "name": "CARTOSAT-3",
        "group": "resource",
        "lat": 48.32212688610646,
        "lon": -116.58627082314388,
        "alt_km": 501.5173563015078,
        "timestamp": "2025-12-21T11:31:42.499639+00:00",
        "meta_object_name": "CARTOSAT-3",
        "meta_object_id": "2019-081A",
        "meta_epoch": "2025-12-21T04:37:54.236640",
        "meta_mean_motion": 15.19214406,
        "meta_eccentricity": 0.0013786,
        "meta_inclination": 97.4575,
        "meta_ra_of_asc_node": 54.6692,
        "meta_arg_of_pericenter": 56.6921,
        "meta_mean_anomaly": 303.5632,
        "meta_ephemeris_type": 0,
        "meta_classification_type": "U",
        "meta_norad_cat_id": 44804,
        "meta_element_set_no": 999,
        "meta_rev_at_epoch": 33644,
        "meta_bstar": 8.7233e-05,
        "meta_mean_motion_dot": 1.772e-05,
        "meta_mean_motion_ddot": 0,
        "tle_line1": "1 44804U 19081A   25355.19298885  .00001772  00000+0  87233-4 0  9992",
        "tle_line2": "2 44804  97.4575  54.6692 0013786  56.6921 303.5632 15.19214406336440"
      },
      "geometry": {
        "type": "Point",
        "coordinates": [
          -116.58627082314388,
          48.32212688610646
        ]
      }
    },
    {
      "type": "Feature",
      "properties": {
        "norad_id": 44819,
        "name": "GAOFEN-12 01",
        "group": "resource",
        "lat": 73.72742121560289,
        "lon": -150.41095619791446,
        "alt_km": 620.1047866444715,
        "timestamp": "2025-12-21T11:31:42.499650+00:00",
        "meta_object_name": "GAOFEN-12 01",
        "meta_object_id": "2019-082A",
        "meta_epoch": "2025-12-21T04:34:17.485824",
        "meta_mean_motion": 14.80666302,
        "meta_eccentricity": 0.0001878,
        "meta_inclination": 97.8124,
        "meta_ra_of_asc_node": 1.2497,
        "meta_arg_of_pericenter": 192.3132,
        "meta_mean_anomaly": 167.8035,
        "meta_ephemeris_type": 0,
        "meta_classification_type": "U",
        "meta_norad_cat_id": 44819,
        "meta_element_set_no": 999,
        "meta_rev_at_epoch": 32775,
        "meta_bstar": 5.0061e-05,
        "meta_mean_motion_dot": 3.34e-06,
        "meta_mean_motion_ddot": 0,
        "tle_line1": "1 44819U 19082A   25355.19048016  .00000334  00000+0  50061-4 0  9990",
        "tle_line2": "2 44819  97.8124   1.2497 0001878 192.3132 167.8035 14.80666302327757"
      },
      "geometry": {
        "type": "Point",
        "coordinates": [
          -150.41095619791446,
          73.72742121560289
        ]
      }
    },
    {
      "type": "Feature",
      "properties": {
        "norad_id": 44873,
        "name": "CSG-1",
        "group": "resource",
        "lat": -78.90214651458457,
        "lon": -48.246080613714035,
        "alt_km": 630.9200333667295,
        "timestamp": "2025-12-21T11:31:42.499660+00:00",
        "meta_object_name": "CSG-1",
        "meta_object_id": "2019-092A",
        "meta_epoch": "2025-12-21T03:52:05.568384",
        "meta_mean_motion": 14.8215054,
        "meta_eccentricity": 0.0001474,
        "meta_inclination": 97.8803,
        "meta_ra_of_asc_node": 176.3584,
        "meta_arg_of_pericenter": 85.9234,
        "meta_mean_anomaly": 274.2147,
        "meta_ephemeris_type": 0,
        "meta_classification_type": "U",
        "meta_norad_cat_id": 44873,
        "meta_element_set_no": 999,
        "meta_rev_at_epoch": 32510,
        "meta_bstar": 5.6462e-05,
        "meta_mean_motion_dot": 3.97e-06,
        "meta_mean_motion_ddot": 0,
        "tle_line1": "1 44873U 19092A   25355.16117556  .00000397  00000+0  56462-4 0  9994",
        "tle_line2": "2 44873  97.8803 176.3584 0001474  85.9234 274.2147 14.82150540325102"
      },
      "geometry": {
        "type": "Point",
        "coordinates": [
          -48.246080613714035,
          -78.90214651458457
        ]
      }
    }
  ]
}